STARLINK-37195          
1 68662U 26077A   26119.28448806 -.00530700  00000+0 -38986-2 0  9991
2 68662  97.2842 350.6541 0002311 105.7035 254.4485 15.74487682  2875
STARLINK-37222          
1 68663U 26077B   26119.28332018  .00094364  00000+0  62596-3 0  9993
2 68663  97.2842 350.6562 0001444  95.1920 264.9510 15.75211972  2873
STARLINK-37153          
1 68664U 26077C   26119.28402604  .00128816  00000+0  85012-3 0  9991
2 68664  97.2842 350.6550 0001399  96.5161 263.6263 15.75228881  2870
STARLINK-37171          
1 68665U 26077D   26119.25003472 -.02002734  00000+0 -18811-1 0  9994
2 68665  97.2839 350.6185 0002019  98.2224  70.3162 15.70161735  3859
STARLINK-37109          
1 68666U 26077E   26119.28155462  .00108213  00000+0  71628-3 0  9997
2 68666  97.2841 350.6580 0001354  89.2569 270.8851 15.75220290  2875
STARLINK-36295          
1 68667U 26077F   26119.28084917  .00126342  00000+0  83398-3 0  9994
2 68667  97.2840 350.6585 0001415  81.8931 278.2495 15.75230676  2874
STARLINK-37221          
1 68668U 26077G   26119.27202692  .00103510  00000+0  68562-3 0  9994
2 68668  97.2846 350.6705 0001268  92.3035 267.8375 15.75218435  2873
STARLINK-37302          
1 68669U 26077H   26119.27802542  .00104437  00000+0  69152-3 0  9990
2 68669  97.2840 350.6621 0001292  98.0883 262.0529 15.75223823  2871
STARLINK-37298          
1 68670U 26077J   26119.27908611  .00150176  00000+0  98843-3 0  9996
2 68670  97.2837 350.6598 0001480 105.5040 254.6388 15.75229178  2879
STARLINK-37224          
1 68671U 26077K   26119.27731600  .00228783  00000+0  14911-2 0  9992
2 68671  97.2840 350.6627 0000283 236.9171 123.2067 15.75233749  2875
STARLINK-37296          
1 68672U 26077L   26118.64172253 -.00284388  00000+0 -19917-2 0  9992
2 68672  97.2845 349.9960 0001834  90.1218 270.0257 15.74933371  2775
STARLINK-37316          
1 68673U 26077M   26119.27626138  .00075548  00000+0  50246-3 0  9994
2 68673  97.2840 350.6642 0001389  75.9709 284.1710 15.75210199  2876
STARLINK-36672          
1 68674U 26077N   26119.25003472 -.02010686  00000+0 -17313-1 0  9995
2 68674  97.2839 350.6377 0001882  98.2068 117.4535 15.72236092  3853
STARLINK-36669          
1 68675U 26077P   26119.27379102  .00094706  00000+0  62817-3 0  9996
2 68675  97.2840 350.6672 0001393  93.1802 266.9623 15.75213193  2870
STARLINK-37312          
1 68676U 26077Q   26119.26955554  .00079319  00000+0  52718-3 0  9999
2 68676  97.2848 350.6730 0001297  87.4652 272.6762 15.75213962  2878
STARLINK-36168          
1 68677U 26077R   26119.27207656 -.00782019  00000+0 -62198-2 0  9996
2 68677  97.2844 350.6701 0001085  85.4651 274.6737 15.73336107  2874
