[{"OBJECT_NAME":"STARLINK-37195","OBJECT_ID":"2026-077A","EPOCH":"2026-04-29T06:49:39.768384","MEAN_MOTION":15.74487682,"ECCENTRICITY":0.0002311,"INCLINATION":97.2842,"RA_OF_ASC_NODE":350.6541,"ARG_OF_PERICENTER":105.7035,"MEAN_ANOMALY":254.4485,"EPHEMERIS_TYPE":0,"CLASSIFICATION_TYPE":"U","NORAD_CAT_ID":68662,"ELEMENT_SET_NO":999,"REV_AT_EPOCH":287,"BSTAR":-0.0038986164,"MEAN_MOTION_DOT":-0.005307,"MEAN_MOTION_DDOT":0},{"OBJECT_NAME":"STARLINK-37222","OBJECT_ID":"2026-077B","EPOCH":"2026-04-29T06:47:58.863552","MEAN_MOTION":15.75211972,"ECCENTRICITY":0.00014442,"INCLINATION":97.2842,"RA_OF_ASC_NODE":350.6562,"ARG_OF_PERICENTER":95.192,"MEAN_ANOMALY":264.951,"EPHEMERIS_TYPE":0,"CLASSIFICATION_TYPE":"U","NORAD_CAT_ID":68663,"ELEMENT_SET_NO":999,"REV_AT_EPOCH":287,"BSTAR":0.00062596299,"MEAN_MOTION_DOT":0.00094364,"MEAN_MOTION_DDOT":0},{"OBJECT_NAME":"STARLINK-37153","OBJECT_ID":"2026-077C","EPOCH":"2026-04-29T06:48:59.849856","MEAN_MOTION":15.75228881,"ECCENTRICITY":0.00013994,"INCLINATION":97.2842,"RA_OF_ASC_NODE":350.655,"ARG_OF_PERICENTER":96.5161,"MEAN_ANOMALY":263.6263,"EPHEMERIS_TYPE":0,"CLASSIFICATION_TYPE":"U","NORAD_CAT_ID":68664,"ELEMENT_SET_NO":999,"REV_AT_EPOCH":287,"BSTAR":0.0008501151,"MEAN_MOTION_DOT":0.00128816,"MEAN_MOTION_DDOT":0},{"OBJECT_NAME":"STARLINK-37171","OBJECT_ID":"2026-077D","EPOCH":"2026-04-29T06:00:02.999808","MEAN_MOTION":15.70161735,"ECCENTRICITY":0.00020199,"INCLINATION":97.2839,"RA_OF_ASC_NODE":350.6185,"ARG_OF_PERICENTER":98.2224,"MEAN_ANOMALY":70.3162,"EPHEMERIS_TYPE":0,"CLASSIFICATION_TYPE":"U","NORAD_CAT_ID":68665,"ELEMENT_SET_NO":999,"REV_AT_EPOCH":385,"BSTAR":-0.018810759,"MEAN_MOTION_DOT":-0.02002734,"MEAN_MOTION_DDOT":0},{"OBJECT_NAME":"STARLINK-37109","OBJECT_ID":"2026-077E","EPOCH":"2026-04-29T06:45:26.319168","MEAN_MOTION":15.7522029,"ECCENTRICITY":0.00013545,"INCLINATION":97.2841,"RA_OF_ASC_NODE":350.658,"ARG_OF_PERICENTER":89.2569,"MEAN_ANOMALY":270.8851,"EPHEMERIS_TYPE":0,"CLASSIFICATION_TYPE":"U","NORAD_CAT_ID":68666,"ELEMENT_SET_NO":999,"REV_AT_EPOCH":287,"BSTAR":0.00071628165,"MEAN_MOTION_DOT":0.00108213,"MEAN_MOTION_DDOT":0},{"OBJECT_NAME":"STARLINK-36295","OBJECT_ID":"2026-077F","EPOCH":"2026-04-29T06:44:25.368288","MEAN_MOTION":15.75230676,"ECCENTRICITY":0.00014154,"INCLINATION":97.284,"RA_OF_ASC_NODE":350.6585,"ARG_OF_PERICENTER":81.8931,"MEAN_ANOMALY":278.2495,"EPHEMERIS_TYPE":0,"CLASSIFICATION_TYPE":"U","NORAD_CAT_ID":68667,"ELEMENT_SET_NO":999,"REV_AT_EPOCH":287,"BSTAR":0.00083397914,"MEAN_MOTION_DOT":0.00126342,"MEAN_MOTION_DDOT":0},{"OBJECT_NAME":"STARLINK-37221","OBJECT_ID":"2026-077G","EPOCH":"2026-04-29T06:31:43.125888","MEAN_MOTION":15.75218435,"ECCENTRICITY":0.00012687,"INCLINATION":97.2846,"RA_OF_ASC_NODE":350.6705,"ARG_OF_PERICENTER":92.3035,"MEAN_ANOMALY":267.8375,"EPHEMERIS_TYPE":0,"CLASSIFICATION_TYPE":"U","NORAD_CAT_ID":68668,"ELEMENT_SET_NO":999,"REV_AT_EPOCH":287,"BSTAR":0.00068562483,"MEAN_MOTION_DOT":0.0010351,"MEAN_MOTION_DDOT":0},{"OBJECT_NAME":"STARLINK-37302","OBJECT_ID":"2026-077H","EPOCH":"2026-04-29T06:40:21.396288","MEAN_MOTION":15.75223823,"ECCENTRICITY":0.00012927,"INCLINATION":97.284,"RA_OF_ASC_NODE":350.6621,"ARG_OF_PERICENTER":98.0883,"MEAN_ANOMALY":262.0529,"EPHEMERIS_TYPE":0,"CLASSIFICATION_TYPE":"U","NORAD_CAT_ID":68669,"ELEMENT_SET_NO":999,"REV_AT_EPOCH":287,"BSTAR":0.0006915185,"MEAN_MOTION_DOT":0.00104437,"MEAN_MOTION_DDOT":0},{"OBJECT_NAME":"STARLINK-37298","OBJECT_ID":"2026-077J","EPOCH":"2026-04-29T06:41:53.039904","MEAN_MOTION":15.75229178,"ECCENTRICITY":0.00014809,"INCLINATION":97.2837,"RA_OF_ASC_NODE":350.6598,"ARG_OF_PERICENTER":105.504,"MEAN_ANOMALY":254.6388,"EPHEMERIS_TYPE":0,"CLASSIFICATION_TYPE":"U","NORAD_CAT_ID":68670,"ELEMENT_SET_NO":999,"REV_AT_EPOCH":287,"BSTAR":0.00098842841,"MEAN_MOTION_DOT":0.00150176,"MEAN_MOTION_DDOT":0},{"OBJECT_NAME":"STARLINK-37224","OBJECT_ID":"2026-077K","EPOCH":"2026-04-29T06:39:20.102400","MEAN_MOTION":15.75233749,"ECCENTRICITY":2.837e-5,"INCLINATION":97.284,"RA_OF_ASC_NODE":350.6627,"ARG_OF_PERICENTER":236.9171,"MEAN_ANOMALY":123.2067,"EPHEMERIS_TYPE":0,"CLASSIFICATION_TYPE":"U","NORAD_CAT_ID":68671,"ELEMENT_SET_NO":999,"REV_AT_EPOCH":287,"BSTAR":0.0014911317,"MEAN_MOTION_DOT":0.00228783,"MEAN_MOTION_DDOT":0},{"OBJECT_NAME":"STARLINK-37296","OBJECT_ID":"2026-077L","EPOCH":"2026-04-28T15:24:04.826592","MEAN_MOTION":15.74933371,"ECCENTRICITY":0.00018345,"INCLINATION":97.2845,"RA_OF_ASC_NODE":349.996,"ARG_OF_PERICENTER":90.1218,"MEAN_ANOMALY":270.0257,"EPHEMERIS_TYPE":0,"CLASSIFICATION_TYPE":"U","NORAD_CAT_ID":68672,"ELEMENT_SET_NO":999,"REV_AT_EPOCH":277,"BSTAR":-0.0019916834,"MEAN_MOTION_DOT":-0.00284388,"MEAN_MOTION_DDOT":0},{"OBJECT_NAME":"STARLINK-37316","OBJECT_ID":"2026-077M","EPOCH":"2026-04-29T06:37:48.983232","MEAN_MOTION":15.75210199,"ECCENTRICITY":0.0001389,"INCLINATION":97.284,"RA_OF_ASC_NODE":350.6642,"ARG_OF_PERICENTER":75.9709,"MEAN_ANOMALY":284.171,"EPHEMERIS_TYPE":0,"CLASSIFICATION_TYPE":"U","NORAD_CAT_ID":68673,"ELEMENT_SET_NO":999,"REV_AT_EPOCH":287,"BSTAR":0.00050246458,"MEAN_MOTION_DOT":0.00075548,"MEAN_MOTION_DDOT":0},{"OBJECT_NAME":"STARLINK-36672","OBJECT_ID":"2026-077N","EPOCH":"2026-04-29T06:00:02.999808","MEAN_MOTION":15.72236092,"ECCENTRICITY":0.00018826,"INCLINATION":97.2839,"RA_OF_ASC_NODE":350.6377,"ARG_OF_PERICENTER":98.2068,"MEAN_ANOMALY":117.4535,"EPHEMERIS_TYPE":0,"CLASSIFICATION_TYPE":"U","NORAD_CAT_ID":68674,"ELEMENT_SET_NO":999,"REV_AT_EPOCH":385,"BSTAR":-0.017312784,"MEAN_MOTION_DOT":-0.02010686,"MEAN_MOTION_DDOT":0},{"OBJECT_NAME":"STARLINK-36669","OBJECT_ID":"2026-077P","EPOCH":"2026-04-29T06:34:15.544128","MEAN_MOTION":15.75213193,"ECCENTRICITY":0.00013935,"INCLINATION":97.284,"RA_OF_ASC_NODE":350.6672,"ARG_OF_PERICENTER":93.1802,"MEAN_ANOMALY":266.9623,"EPHEMERIS_TYPE":0,"CLASSIFICATION_TYPE":"U","NORAD_CAT_ID":68675,"ELEMENT_SET_NO":999,"REV_AT_EPOCH":287,"BSTAR":0.00062816734,"MEAN_MOTION_DOT":0.00094706,"MEAN_MOTION_DDOT":0},{"OBJECT_NAME":"STARLINK-37312","OBJECT_ID":"2026-077Q","EPOCH":"2026-04-29T06:28:09.598656","MEAN_MOTION":15.75213962,"ECCENTRICITY":0.00012972,"INCLINATION":97.2848,"RA_OF_ASC_NODE":350.673,"ARG_OF_PERICENTER":87.4652,"MEAN_ANOMALY":272.6762,"EPHEMERIS_TYPE":0,"CLASSIFICATION_TYPE":"U","NORAD_CAT_ID":68676,"ELEMENT_SET_NO":999,"REV_AT_EPOCH":287,"BSTAR":0.00052718487,"MEAN_MOTION_DOT":0.00079319,"MEAN_MOTION_DDOT":0},{"OBJECT_NAME":"STARLINK-36168","OBJECT_ID":"2026-077R","EPOCH":"2026-04-29T06:31:47.414784","MEAN_MOTION":15.73336107,"ECCENTRICITY":0.00010857,"INCLINATION":97.2844,"RA_OF_ASC_NODE":350.6701,"ARG_OF_PERICENTER":85.4651,"MEAN_ANOMALY":274.6737,"EPHEMERIS_TYPE":0,"CLASSIFICATION_TYPE":"U","NORAD_CAT_ID":68677,"ELEMENT_SET_NO":999,"REV_AT_EPOCH":287,"BSTAR":-0.0062197603,"MEAN_MOTION_DOT":-0.00782019,"MEAN_MOTION_DDOT":0}]
